start=new Date('2022-12-09T00:00:00.000Z').valueOf();
sats=[{"CENTER_NAME":"EARTH","INCLINATION":"53.2202","SEMIMAJOR_AXIS":"6917.886","COUNTRY_CODE":"US","PERIOD":"95.438","RA_OF_ASC_NODE":"43.7621","MEAN_ELEMENT_THEORY":"SGP4","PERIAPSIS":"538.038","MEAN_ANOMALY":"336.3785","EPOCH":"2022-12-08T11:12:06.038784","EPHEMERIS_TYPE":"0","LAUNCH_DATE":"2022-08-10","OBJECT_TYPE":"PAYLOAD","NORAD_CAT_ID":"53417","REF_FRAME":"TEME","MEAN_MOTION_DOT":"0.00003994","GP_ID":"219779015","ECCENTRICITY":"0.00024760","ELEMENT_SET_NO":"999","OBJECT_NAME":"STARLINK-4484","FILE":"3684614","SITE":"AFETR","OBJECT_ID":"2022-097AF","MEAN_MOTION_DDOT":"0.0000000000000","ARG_OF_PERICENTER":"23.7321","APOAPSIS":"541.464","TIME_SYSTEM":"UTC","BSTAR":"0.00026894000000","TLE_LINE2":"2 53417  53.2202  43.7621 0002476  23.7321 336.3785 15.08838196 19392","RCS_SIZE":"LARGE","TLE_LINE1":"1 53417U 22097AF  22342.46673656  .00003994  00000-0  26894-3 0  9993","REV_AT_EPOCH":"1939","DECAY_DATE":null,"MEAN_MOTION":"15.08838196","CLASSIFICATION_TYPE":"U"},{"OBJECT_NAME":"STARLINK-4481","ECCENTRICITY":"0.00017050","ELEMENT_SET_NO":"999","FILE":"3684925","SITE":"AFETR","MEAN_MOTION_DDOT":"0.0000000000000","OBJECT_ID":"2022-097AG","TIME_SYSTEM":"UTC","ARG_OF_PERICENTER":"45.5261","APOAPSIS":"540.929","TLE_LINE2":"2 53418  53.2190  32.6269 0001705  45.5261 314.5870 15.08838689 19595","RCS_SIZE":"LARGE","BSTAR":"0.00012348000000","TLE_LINE1":"1 53418U 22097AG  22342.62583287  .00001678  00000-0  12348-3 0  9998","DECAY_DATE":null,"CLASSIFICATION_TYPE":"U","MEAN_MOTION":"15.08838689","REV_AT_EPOCH":"1959","CENTER_NAME":"EARTH","RA_OF_ASC_NODE":"32.6269","PERIOD":"95.438","MEAN_ELEMENT_THEORY":"SGP4","INCLINATION":"53.2190","COUNTRY_CODE":"US","SEMIMAJOR_AXIS":"6917.884","PERIAPSIS":"538.570","MEAN_ANOMALY":"314.5870","EPOCH":"2022-12-08T15:01:11.959968","NORAD_CAT_ID":"53418","OBJECT_TYPE":"PAYLOAD","EPHEMERIS_TYPE":"0","LAUNCH_DATE":"2022-08-10","REF_FRAME":"TEME","MEAN_MOTION_DOT":"0.00001678","GP_ID":"219810783"},{"ELEMENT_SET_NO":"999","ECCENTRICITY":"0.00022920","OBJECT_NAME":"STARLINK-4476","FILE":"3684614","SITE":"AFETR","OBJECT_ID":"2022-097AH","MEAN_MOTION_DDOT":"0.0000000000000","APOAPSIS":"541.292","ARG_OF_PERICENTER":"42.1122","TIME_SYSTEM":"UTC","BSTAR":"0.00014846000000","TLE_LINE2":"2 53419  53.2207  43.7833 0002292  42.1122 318.0046 15.08852664 19397","RCS_SIZE":"LARGE","TLE_LINE1":"1 53419U 22097AH  22342.46303410  .00002076  00000-0  14846-3 0  9997","REV_AT_EPOCH":"1939","CLASSIFICATION_TYPE":"U","DECAY_DATE":null,"MEAN_MOTION":"15.08852664","CENTER_NAME":"EARTH","SEMIMAJOR_AXIS":"6917.842","COUNTRY_CODE":"US","INCLINATION":"53.2207","MEAN_ELEMENT_THEORY":"SGP4","RA_OF_ASC_NODE":"43.7833","PERIOD":"95.437","MEAN_ANOMALY":"318.0046","PERIAPSIS":"538.121","EPOCH":"2022-12-08T11:06:46.146240","LAUNCH_DATE":"2022-08-10","EPHEMERIS_TYPE":"0","NORAD_CAT_ID":"53419","OBJECT_TYPE":"PAYLOAD","REF_FRAME":"TEME","MEAN_MOTION_DOT":"0.00002076","GP_ID":"219778813"},{"DECAY_DATE":null,"MEAN_MOTION":"15.08848160","CLASSIFICATION_TYPE":"U","REV_AT_EPOCH":"1942","TLE_LINE1":"1 53420U 22097AJ  22342.65070879  .00002046  00000-0  14661-3 0  9992","TLE_LINE2":"2 53420  53.2200  42.9449 0002288  32.3712 327.7420 15.08848160 19420","RCS_SIZE":"LARGE","BSTAR":"0.00014661000000","TIME_SYSTEM":"UTC","APOAPSIS":"541.303","ARG_OF_PERICENTER":"32.3712","MEAN_MOTION_DDOT":"0.0000000000000","OBJECT_ID":"2022-097AJ","SITE":"AFETR","FILE":"3684925","OBJECT_NAME":"STARLINK-4552","ELEMENT_SET_NO":"999","ECCENTRICITY":"0.00022880","GP_ID":"219812209","MEAN_MOTION_DOT":"0.00002046","REF_FRAME":"TEME","OBJECT_TYPE":"PAYLOAD","NORAD_CAT_ID":"53420","LAUNCH_DATE":"2022-08-10","EPHEMERIS_TYPE":"0","PERIAPSIS":"538.138","MEAN_ANOMALY":"327.7420","EPOCH":"2022-12-08T15:37:01.239456","MEAN_ELEMENT_THEORY":"SGP4","RA_OF_ASC_NODE":"42.9449","PERIOD":"95.437","SEMIMAJOR_AXIS":"6917.855","COUNTRY_CODE":"US","INCLINATION":"53.2200","CENTER_NAME":"EARTH"},{"MEAN_ELEMENT_THEORY":"SGP4","PERIOD":"95.437","RA_OF_ASC_NODE":"43.8020","COUNTRY_CODE":"US","SEMIMAJOR_AXIS":"6917.833","INCLINATION":"53.2206","CENTER_NAME":"EARTH","OBJECT_TYPE":"PAYLOAD","NORAD_CAT_ID":"53421","LAUNCH_DATE":"2022-08-10","EPHEMERIS_TYPE":"0","EPOCH":"2022-12-08T11:01:28.201152","PERIAPSIS":"537.887","MEAN_ANOMALY":"311.7748","MEAN_MOTION_DOT":"0.00001972","REF_FRAME":"TEME","GP_ID":"219778622","FILE":"3684614","OBJECT_NAME":"STARLINK-4545","ELEMENT_SET_NO":"999","ECCENTRICITY":"0.00026170","MEAN_MOTION_DDOT":"0.0000000000000","OBJECT_ID":"2022-097AK","SITE":"AFETR","RCS_SIZE":"LARGE","TLE_LINE2":"2 53421  53.2206  43.8020 0002617  48.3467 311.7748 15.08855666 19393","BSTAR":"0.00014190000000","TIME_SYSTEM":"UTC","APOAPSIS":"541.508","ARG_OF_PERICENTER":"48.3467","DECAY_DATE":null,"MEAN_MOTION":"15.08855666","CLASSIFICATION_TYPE":"U","REV_AT_EPOCH":"1939","TLE_LINE1":"1 53421U 22097AK  22342.45935418  .00001972  00000-0  14190-3 0  9994"},{"GP_ID":"219811204","REF_FRAME":"TEME","MEAN_MOTION_DOT":"0.00000810","EPOCH":"2022-12-08T15:26:26.950272","PERIAPSIS":"537.911","MEAN_ANOMALY":"333.7914","LAUNCH_DATE":"2022-08-10","EPHEMERIS_TYPE":"0","OBJECT_TYPE":"PAYLOAD","NORAD_CAT_ID":"53422","CENTER_NAME":"EARTH","COUNTRY_CODE":"US","SEMIMAJOR_AXIS":"6917.899","INCLINATION":"53.2203","MEAN_ELEMENT_THEORY":"SGP4","PERIOD":"95.438","RA_OF_ASC_NODE":"42.9855","TLE_LINE1":"1 53422U 22097AL  22342.64336748  .00000810  00000-0  69002-4 0  9990","REV_AT_EPOCH":"1944","DECAY_DATE":null,"CLASSIFICATION_TYPE":"U","MEAN_MOTION":"15.08834067","APOAPSIS":"541.616","ARG_OF_PERICENTER":"26.3214","TIME_SYSTEM":"UTC","BSTAR":"0.00006900200000","TLE_LINE2":"2 53422  53.2203  42.9855 0002678  26.3214 333.7914 15.08834067 19447","RCS_SIZE":"LARGE","SITE":"AFETR","OBJECT_ID":"2022-097AL","MEAN_MOTION_DDOT":"0.0000000000000","ELEMENT_SET_NO":"999","ECCENTRICITY":"0.00026780","OBJECT_NAME":"STARLINK-4546","FILE":"3684925"},{"GP_ID":"219811408","REF_FRAME":"TEME","MEAN_MOTION_DOT":"0.00002279","PERIAPSIS":"537.238","EPOCH":"2022-12-08T15:42:22.034880","MEAN_ANOMALY":"326.2121","NORAD_CAT_ID":"53423","OBJECT_TYPE":"PAYLOAD","LAUNCH_DATE":"2022-08-10","EPHEMERIS_TYPE":"0","CENTER_NAME":"EARTH","MEAN_ELEMENT_THEORY":"SGP4","RA_OF_ASC_NODE":"42.9273","PERIOD":"95.438","COUNTRY_CODE":"US","SEMIMAJOR_AXIS":"6917.900","INCLINATION":"53.2201","TLE_LINE1":"1 53423U 22097AM  22342.65442170  .00002279  00000-0  16132-3 0  9995","MEAN_MOTION":"15.08833492","DECAY_DATE":null,"CLASSIFICATION_TYPE":"U","REV_AT_EPOCH":"1942","TIME_SYSTEM":"UTC","APOAPSIS":"542.292","ARG_OF_PERICENTER":"33.9104","TLE_LINE2":"2 53423  53.2201  42.9273 0003653  33.9104 326.2121 15.08833492 19422","RCS_SIZE":"LARGE","BSTAR":"0.00016132000000","SITE":"AFETR","MEAN_MOTION_DDOT":"0.0000000000000","OBJECT_ID":"2022-097AM","OBJECT_NAME":"STARLINK-4539","ELEMENT_SET_NO":"999","ECCENTRICITY":"0.00036530","FILE":"3684925"},{"MEAN_MOTION_DOT":"0.00002890","REF_FRAME":"TEME","GP_ID":"219777601","INCLINATION":"53.2193","SEMIMAJOR_AXIS":"6917.852","COUNTRY_CODE":"US","PERIOD":"95.437","RA_OF_ASC_NODE":"43.9080","MEAN_ELEMENT_THEORY":"SGP4","CENTER_NAME":"EARTH","EPHEMERIS_TYPE":"0","LAUNCH_DATE":"2022-08-10","OBJECT_TYPE":"PAYLOAD","NORAD_CAT_ID":"53424","MEAN_ANOMALY":"326.9083","PERIAPSIS":"538.330","EPOCH":"2022-12-08T10:29:41.235648","BSTAR":"0.00019958000000","RCS_SIZE":"LARGE","TLE_LINE2":"2 53424  53.2193  43.9080 0002004  33.2034 326.9083 15.08849390 19411","ARG_OF_PERICENTER":"33.2034","APOAPSIS":"541.103","TIME_SYSTEM":"UTC","REV_AT_EPOCH":"1941","MEAN_MOTION":"15.08849390","DECAY_DATE":null,"CLASSIFICATION_TYPE":"U","TLE_LINE1":"1 53424U 22097AN  22342.43728282  .00002890  00000-0  19958-3 0  9991","FILE":"3684614","ECCENTRICITY":"0.00020040","ELEMENT_SET_NO":"999","OBJECT_NAME":"STARLINK-4532","OBJECT_ID":"2022-097AN","MEAN_MOTION_DDOT":"0.0000000000000","SITE":"AFETR"},{"MEAN_MOTION_DDOT":"0.0000000000000","OBJECT_ID":"2022-097AP","SITE":"AFETR","FILE":"3684925","OBJECT_NAME":"STARLINK-4531","ECCENTRICITY":"0.00024260","ELEMENT_SET_NO":"999","DECAY_DATE":null,"CLASSIFICATION_TYPE":"U","MEAN_MOTION":"15.08825994","REV_AT_EPOCH":"1941","TLE_LINE1":"1 53425U 22097AP  22342.64705221  .00000330  00000-0  38859-4 0  9992","TLE_LINE2":"2 53425  53.2217  42.9685 0002426 358.0943   2.0039 15.08825994 19411","RCS_SIZE":"LARGE","BSTAR":"0.00003885900000","TIME_SYSTEM":"UTC","ARG_OF_PERICENTER":"358.0943","APOAPSIS":"541.466","OBJECT_TYPE":"PAYLOAD","NORAD_CAT_ID":"53425","EPHEMERIS_TYPE":"0","LAUNCH_DATE":"2022-08-10","MEAN_ANOMALY":"2.0039","PERIAPSIS":"538.110","EPOCH":"2022-12-08T15:31:45.310944","RA_OF_ASC_NODE":"42.9685","PERIOD":"95.438","MEAN_ELEMENT_THEORY":"SGP4","INCLINATION":"53.2217","COUNTRY_CODE":"US","SEMIMAJOR_AXIS":"6917.923","CENTER_NAME":"EARTH","GP_ID":"219812006","MEAN_MOTION_DOT":"0.00000330","REF_FRAME":"TEME"},{"SITE":"AFETR","MEAN_MOTION_DDOT":"0.0000000000000","OBJECT_ID":"2022-097AQ","OBJECT_NAME":"STARLINK-4558","ECCENTRICITY":"0.00012760","ELEMENT_SET_NO":"999","FILE":"3684925","TLE_LINE1":"1 53426U 22097AQ  22342.61484713  .00001290  00000-0  99091-4 0  9991","CLASSIFICATION_TYPE":"U","DECAY_DATE":null,"MEAN_MOTION":"15.08856799","REV_AT_EPOCH":"1957","TIME_SYSTEM":"UTC","ARG_OF_PERICENTER":"93.2995","APOAPSIS":"540.577","TLE_LINE2":"2 53426  53.2180  33.2542 0001276  93.2995 266.8143 15.08856799 19573","RCS_SIZE":"LARGE","BSTAR":"0.00009909100000","PERIAPSIS":"538.811","MEAN_ANOMALY":"266.8143","EPOCH":"2022-12-08T14:45:22.792032","OBJECT_TYPE":"PAYLOAD","NORAD_CAT_ID":"53426","EPHEMERIS_TYPE":"0","LAUNCH_DATE":"2022-08-10","CENTER_NAME":"EARTH","PERIOD":"95.436","RA_OF_ASC_NODE":"33.2542","MEAN_ELEMENT_THEORY":"SGP4","INCLINATION":"53.2180","COUNTRY_CODE":"US","SEMIMAJOR_AXIS":"6917.829","GP_ID":"219810784","REF_FRAME":"TEME","MEAN_MOTION_DOT":"0.00001290"}];
